#aV2010  9 19  0  0   .00000000      96 DD+AD WGS84 FIT  NGA
## 1602       .00000000   900.00000000 55458  .0000000000000
+   32     1  2  3  4  5  6  7  8  9 10 11 12 13 14 15 16 17
+         18 19 20 21 22 23 24 25 26 27 28 29 30 31 32  0  0
+          0  0  0  0  0  0  0  0  0  0  0  0  0  0  0  0  0
+          0  0  0  0  0  0  0  0  0  0  0  0  0  0  0  0  0
+          0  0  0  0  0  0  0  0  0  0  0  0  0  0  0  0  0
++         0  0  0  0  0  0  0  0  0  0  0  0  0  0  0  0  0
++         0  0  0  0  0  0  0  0  0  0  0  0  0  0  0  0  0
++         0  0  0  0  0  0  0  0  0  0  0  0  0  0  0  0  0
++         0  0  0  0  0  0  0  0  0  0  0  0  0  0  0  0  0
++         0  0  0  0  0  0  0  0  0  0  0  0  0  0  0  0  0
%c cc cc ccc ccc cccc cccc cccc cccc ccccc ccccc ccccc ccccc
%c cc cc ccc ccc cccc cccc cccc cccc ccccc ccccc ccccc ccccc
%f  0.0000000  0.000000000  0.00000000000  0.000000000000000
%f  0.0000000  0.000000000  0.00000000000  0.000000000000000
%i    0    0    0    0      0      0      0      0         0
%i    0    0    0    0      0      0      0      0         0
/*      NGA, ST. LOUIS,MO.                                  
/*   EPHEMERIS COMPUTED FROM  3 DAYS OF DATA                
/* CCCCCCCCCCCCCCCCCCCCCCCCCCCCCCCCCCCCCCCCCCCCCCCCCCCCCCCCC
/* CCCCCCCCCCCCCCCCCCCCCCCCCCCCCCCCCCCCCCCCCCCCCCCCCCCCCCCCC
*  2010  9 19  8 15   .00000000                                                 
P  1  -4975.985711 -15330.028722 -21207.216840   -163.988329                    
V  1  20149.302467 -17476.462847   8070.941208      -.038734                    
P  2  13420.602474  20049.006412 -11617.793822    289.563985                    
V  2    825.674606  14827.250747  26082.039098       .027477                    
P  3 -23611.998069 -10255.064177  -7599.450948    610.355938                    
V  3   9546.659990  -1511.763433 -28787.678995       .050433                    
P  4   6370.337601  25565.063890  -1133.656511    173.422089                    
V  4  -3465.193275   2020.245712  31452.122020       .091479                    
P  5  15972.865605   5108.862132 -20628.649408    -38.800246                    
V  5 -18717.255850  18298.181662  -9874.016829      -.053801                    
P  6 -20189.819297 -13532.144686 -10743.333508    487.985969                    
V  6  14198.017950    597.685273 -26843.690976      -.149197                    
P  7  -7514.671110  19189.334917 -16650.904532     -1.796975                    
V  7  -6071.906706 -20361.869471 -20923.622972       .001422                    
P  8   -854.653232  25381.912747  -6720.816006      6.706925                    
V  8  -3287.948207  -8256.394153 -31304.417165       .000595                    
P  9  14911.520013    725.837306  21426.383151     31.358350                    
V  9   6375.288508  27731.623517  -5229.422851       .024026                    
P 10   3694.150485  16347.031628 -20712.935256    -52.772673                    
V 10 -20328.494470  16239.991556   9626.610778      -.010592                    
P 11 -15640.007107   5755.961197  20411.816947    -90.605030                    
V 11 -11674.391898 -24227.785901  -1715.660611      -.027573                    
P 12  22093.598843  -9281.811411  11319.370586    -71.541350                    
V 12  -9262.701274  11193.741998  27485.915165       .036920                    
P 13 -14896.369636   8414.996613 -20464.497295    297.059372                    
V 13 -23486.037612 -10178.733643  12948.062350      -.009181                    
P 14  -5837.932495 -16494.825611  20177.977403     90.065891                    
V 14  23825.363374   8169.066683  13536.535237       .036579                    
P 15  25866.240071   4356.952235   4620.525375   -207.127002                    
V 15   4746.171613   4453.434439 -30765.107912       .052189                    
P 16 -10893.442049 -10306.507936 -21900.982558   -109.848937                    
V 16  21121.654973 -18124.731265  -1705.281085      -.034186                    
P 17   2525.627622  16361.240433  20920.907212    171.307593                    
V 17 -25042.075175  -7975.507969   9094.366812       .014367                    
P 18  15936.770261 -20105.929042   6346.362121     93.938254                    
V 18   8329.632314  -2319.636250 -30010.401298       .022233                    
P 19 -25407.193956  -6242.045672   5514.996491    -67.132710                    
V 19  -5444.827573  -4970.734109 -30463.577092      -.031794                    
P 20 -21920.644851  10483.619495  10526.263038     50.981150                    
V 20   7526.438751 -11810.480343  27150.614376      -.004000                    
P 21   6269.045022 -21124.694168 -14011.707563    -89.217070                    
V 21   7006.344991  17676.847387 -23556.976712      -.026863                    
P 22   5910.389348 -20589.296651  15816.729271    162.704864                    
V 22  16684.699017 -11113.485391 -21026.188002      -.006814                    
P 23 -22867.809454   2325.022745 -13605.490675    353.091473                    
V 23 -15681.699387  -7101.537897  24830.612793      -.018435                    
P 24 -13833.554719 -17051.118067  15213.232267    322.911915                    
V 24  -1036.989408 -19188.180523 -22301.173493       .032343                    
P 25  19931.649614 -17526.103535   1202.884738    -41.968378                    
V 25    791.598655   3116.802705  31689.292581      -.013133                    
P 26  23166.880765  12714.873290  -4944.053891    -13.680715                    
V 26  -5611.778761   -691.903238 -31313.216284      -.071350                    
P 27  16206.203159   6597.659896  20720.275803    190.370243                    
V 27   5872.460128  23993.832741 -12452.863325       .036059                    
P 28  -8887.638460  20532.471242  14571.496468     -2.992879                    
V 28 -14819.154415   9986.764443 -24190.578899       .014637                    
P 29  16029.575699  -8566.222464 -19272.116450    150.424640                    
V 29  22771.498265   9555.997966  14669.464708       .026810                    
P 30  18791.908529 -18740.994994    -97.437320    279.694481                    
V 30   1833.588173   2365.764934  31696.782116       .034354                    
P 31  -7702.568578 -25053.854307  -3452.958063     -8.017024                    
V 31   1391.442025  -5053.531416  31849.664616       .031379                    
P 32 -21617.123191   3021.377689  15205.363582    -88.828601                    
V 32  13655.383783 -13234.120555  22892.718186      -.089716                    
EOF
